COSMOS 2151             
1 21422U 91042A   25336.48122939  .00002072  00000+0  16586-3 0  9993
2 21422  82.4962 177.3884 0013445  33.4813 326.7258 14.99625386848625
SL-14 R/B               
1 21423U 91042B   25336.44986153  .00000639  00000+0  78017-4 0  9991
2 21423  82.4918 311.3732 0016536 195.6257 164.4449 14.81723230838677
ERS-1                   
1 21574U 91050A   25336.44865552  .00000483  00000+0  16919-3 0  9995
2 21574  98.7911 347.2460 0032813 129.6794 230.7295 14.39351971801748
ARIANE 40 R/B           
1 21610U 91050F   25336.38401605  .00000508  00000+0  16493-3 0  9999
2 21610  98.2180  27.1876 0003421  29.3763 330.7620 14.42799061804962
INTERCOSMOS 25          
1 21819U 91086A   25336.15014118  .00002778  00000+0  55050-3 0  9996
2 21819  82.6068   8.9799 1487138 327.2428  24.4331 12.11666990484874
SL-8 R/B                
1 21876U 92008B   25336.51038785  .00000185  00000+0  17459-3 0  9991
2 21876  82.9264 340.0561 0035722  47.7713  70.4178 13.75955639696050
SL-8 R/B                
1 21938U 92020B   25336.23862492  .00000079  00000+0  66621-4 0  9991
2 21938  82.9314 226.1146 0028239 207.8664 301.0814 13.75524670687739
USA 81                  
1 21949U 92023A   25336.34547492  .00000253  00000+0  86306-4 0  9994
2 21949  85.0088 187.5704 0001879  63.0258 297.1126 14.32320881 80858
COSMOS 2219             
1 22219U 92076A   25336.39667172 -.00000226  00000+0 -93822-4 0  9999
2 22219  71.0594 221.4534 0018830 341.0960  18.9461 14.14064230704621
SL-16 R/B               
1 22220U 92076B   25336.48700453  .00000097  00000+0  72444-4 0  9992
2 22220  71.0016  33.1291 0015074 247.7502 208.6337 14.16841038708064
COSMOS 2221             
1 22236U 92080A   25336.38164080  .00002844  00000+0  25282-3 0  9992
2 22236  82.5052  12.2398 0015316 154.1188 206.0804 14.95697285766249
SL-16 R/B               
1 22285U 92093B   25336.35542324 -.00000151  00000+0 -53036-4 0  9998
2 22285  71.0202 208.5939 0001941 103.4941 256.6398 14.15425694699381
