CCSDS_OMM_VERS = 2.0
CREATION_DATE  = 
ORIGINATOR     = 

OBJECT_NAME    = COSMOS 2151
OBJECT_ID      = 1991-042A
CENTER_NAME    = EARTH
REF_FRAME      = TEME
TIME_SYSTEM    = UTC
MEAN_ELEMENT_THEORY = SGP/SGP4

EPOCH          = 2025-12-02T11:32:58.219296
MEAN_MOTION    = 14.99625386
ECCENTRICITY   = .0013445
INCLINATION    = 82.4962
RA_OF_ASC_NODE = 177.3884
ARG_OF_PERICENTER = 33.4813
MEAN_ANOMALY   = 326.7258

EPHEMERIS_TYPE = 0
CLASSIFICATION_TYPE = U
NORAD_CAT_ID   = 21422
ELEMENT_SET_NO = 999
REV_AT_EPOCH   = 84862
BSTAR          = .16586E-3
MEAN_MOTION_DOT = .2072E-4
MEAN_MOTION_DDOT = 0

CCSDS_OMM_VERS = 2.0
CREATION_DATE  = 
ORIGINATOR     = 

OBJECT_NAME    = SL-14 R/B
OBJECT_ID      = 1991-042B
CENTER_NAME    = EARTH
REF_FRAME      = TEME
TIME_SYSTEM    = UTC
MEAN_ELEMENT_THEORY = SGP/SGP4

EPOCH          = 2025-12-02T10:47:48.036192
MEAN_MOTION    = 14.81723230
ECCENTRICITY   = .0016536
INCLINATION    = 82.4918
RA_OF_ASC_NODE = 311.3732
ARG_OF_PERICENTER = 195.6257
MEAN_ANOMALY   = 164.4449

EPHEMERIS_TYPE = 0
CLASSIFICATION_TYPE = U
NORAD_CAT_ID   = 21423
ELEMENT_SET_NO = 999
REV_AT_EPOCH   = 83867
BSTAR          = .78017E-4
MEAN_MOTION_DOT = .639E-5
MEAN_MOTION_DDOT = 0

CCSDS_OMM_VERS = 2.0
CREATION_DATE  = 
ORIGINATOR     = 

OBJECT_NAME    = ERS-1
OBJECT_ID      = 1991-050A
CENTER_NAME    = EARTH
REF_FRAME      = TEME
TIME_SYSTEM    = UTC
MEAN_ELEMENT_THEORY = SGP/SGP4

EPOCH          = 2025-12-02T10:46:03.836928
MEAN_MOTION    = 14.39351971
ECCENTRICITY   = .0032813
INCLINATION    = 98.7911
RA_OF_ASC_NODE = 347.2460
ARG_OF_PERICENTER = 129.6794
MEAN_ANOMALY   = 230.7295

EPHEMERIS_TYPE = 0
CLASSIFICATION_TYPE = U
NORAD_CAT_ID   = 21574
ELEMENT_SET_NO = 999
REV_AT_EPOCH   = 80174
BSTAR          = .16919E-3
MEAN_MOTION_DOT = .483E-5
MEAN_MOTION_DDOT = 0

CCSDS_OMM_VERS = 2.0
CREATION_DATE  = 
ORIGINATOR     = 

OBJECT_NAME    = ARIANE 40 R/B
OBJECT_ID      = 1991-050F
CENTER_NAME    = EARTH
REF_FRAME      = TEME
TIME_SYSTEM    = UTC
MEAN_ELEMENT_THEORY = SGP/SGP4

EPOCH          = 2025-12-02T09:12:58.986720
MEAN_MOTION    = 14.42799061
ECCENTRICITY   = .0003421
INCLINATION    = 98.2180
RA_OF_ASC_NODE = 27.1876
ARG_OF_PERICENTER = 29.3763
MEAN_ANOMALY   = 330.7620

EPHEMERIS_TYPE = 0
CLASSIFICATION_TYPE = U
NORAD_CAT_ID   = 21610
ELEMENT_SET_NO = 999
REV_AT_EPOCH   = 80496
BSTAR          = .16493E-3
MEAN_MOTION_DOT = .508E-5
MEAN_MOTION_DDOT = 0

CCSDS_OMM_VERS = 2.0
CREATION_DATE  = 
ORIGINATOR     = 

OBJECT_NAME    = INTERCOSMOS 25
OBJECT_ID      = 1991-086A
CENTER_NAME    = EARTH
REF_FRAME      = TEME
TIME_SYSTEM    = UTC
MEAN_ELEMENT_THEORY = SGP/SGP4

EPOCH          = 2025-12-02T03:36:12.197952
MEAN_MOTION    = 12.11666990
ECCENTRICITY   = .14871388
INCLINATION    = 82.6068
RA_OF_ASC_NODE = 8.9799
ARG_OF_PERICENTER = 327.2428
MEAN_ANOMALY   = 24.4331

EPHEMERIS_TYPE = 0
CLASSIFICATION_TYPE = U
NORAD_CAT_ID   = 21819
ELEMENT_SET_NO = 999
REV_AT_EPOCH   = 48487
BSTAR          = .55049527E-3
MEAN_MOTION_DOT = .2778E-4
MEAN_MOTION_DDOT = 0

CCSDS_OMM_VERS = 2.0
CREATION_DATE  = 
ORIGINATOR     = 

OBJECT_NAME    = SL-8 R/B
OBJECT_ID      = 1992-008B
CENTER_NAME    = EARTH
REF_FRAME      = TEME
TIME_SYSTEM    = UTC
MEAN_ELEMENT_THEORY = SGP/SGP4

EPOCH          = 2025-12-02T12:14:57.510240
MEAN_MOTION    = 13.75955639
ECCENTRICITY   = .0035722
INCLINATION    = 82.9264
RA_OF_ASC_NODE = 340.0561
ARG_OF_PERICENTER = 47.7713
MEAN_ANOMALY   = 70.4178

EPHEMERIS_TYPE = 0
CLASSIFICATION_TYPE = U
NORAD_CAT_ID   = 21876
ELEMENT_SET_NO = 999
REV_AT_EPOCH   = 69605
BSTAR          = .17459E-3
MEAN_MOTION_DOT = .185E-5
MEAN_MOTION_DDOT = 0

CCSDS_OMM_VERS = 2.0
CREATION_DATE  = 
ORIGINATOR     = 

OBJECT_NAME    = SL-8 R/B
OBJECT_ID      = 1992-020B
CENTER_NAME    = EARTH
REF_FRAME      = TEME
TIME_SYSTEM    = UTC
MEAN_ELEMENT_THEORY = SGP/SGP4

EPOCH          = 2025-12-02T05:43:37.193088
MEAN_MOTION    = 13.75524670
ECCENTRICITY   = .0028239
INCLINATION    = 82.9314
RA_OF_ASC_NODE = 226.1146
ARG_OF_PERICENTER = 207.8664
MEAN_ANOMALY   = 301.0814

EPHEMERIS_TYPE = 0
CLASSIFICATION_TYPE = U
NORAD_CAT_ID   = 21938
ELEMENT_SET_NO = 999
REV_AT_EPOCH   = 68773
BSTAR          = .66621E-4
MEAN_MOTION_DOT = .79E-6
MEAN_MOTION_DDOT = 0

CCSDS_OMM_VERS = 2.0
CREATION_DATE  = 
ORIGINATOR     = 

OBJECT_NAME    = USA 81
OBJECT_ID      = 1992-023A
CENTER_NAME    = EARTH
REF_FRAME      = TEME
TIME_SYSTEM    = UTC
MEAN_ELEMENT_THEORY = SGP/SGP4

EPOCH          = 2025-12-02T08:17:29.033088
MEAN_MOTION    = 14.32320881
ECCENTRICITY   = .0001879
INCLINATION    = 85.0088
RA_OF_ASC_NODE = 187.5704
ARG_OF_PERICENTER = 63.0258
MEAN_ANOMALY   = 297.1126

EPHEMERIS_TYPE = 0
CLASSIFICATION_TYPE = U
NORAD_CAT_ID   = 21949
ELEMENT_SET_NO = 999
REV_AT_EPOCH   = 8085
BSTAR          = .86306E-4
MEAN_MOTION_DOT = .253E-5
MEAN_MOTION_DDOT = 0

CCSDS_OMM_VERS = 2.0
CREATION_DATE  = 
ORIGINATOR     = 

OBJECT_NAME    = COSMOS 2219
OBJECT_ID      = 1992-076A
CENTER_NAME    = EARTH
REF_FRAME      = TEME
TIME_SYSTEM    = UTC
MEAN_ELEMENT_THEORY = SGP/SGP4

EPOCH          = 2025-12-02T09:31:12.436608
MEAN_MOTION    = 14.14064230
ECCENTRICITY   = .001883
INCLINATION    = 71.0594
RA_OF_ASC_NODE = 221.4534
ARG_OF_PERICENTER = 341.0960
MEAN_ANOMALY   = 18.9461

EPHEMERIS_TYPE = 0
CLASSIFICATION_TYPE = U
NORAD_CAT_ID   = 22219
ELEMENT_SET_NO = 999
REV_AT_EPOCH   = 70462
BSTAR          = -.93822E-4
MEAN_MOTION_DOT = -.226E-5
MEAN_MOTION_DDOT = 0

CCSDS_OMM_VERS = 2.0
CREATION_DATE  = 
ORIGINATOR     = 

OBJECT_NAME    = SL-16 R/B
OBJECT_ID      = 1992-076B
CENTER_NAME    = EARTH
REF_FRAME      = TEME
TIME_SYSTEM    = UTC
MEAN_ELEMENT_THEORY = SGP/SGP4

EPOCH          = 2025-12-02T11:41:17.191392
MEAN_MOTION    = 14.16841038
ECCENTRICITY   = .0015074
INCLINATION    = 71.0016
RA_OF_ASC_NODE = 33.1291
ARG_OF_PERICENTER = 247.7502
MEAN_ANOMALY   = 208.6337

EPHEMERIS_TYPE = 0
CLASSIFICATION_TYPE = U
NORAD_CAT_ID   = 22220
ELEMENT_SET_NO = 999
REV_AT_EPOCH   = 70806
BSTAR          = .72444E-4
MEAN_MOTION_DOT = .97E-6
MEAN_MOTION_DDOT = 0

CCSDS_OMM_VERS = 2.0
CREATION_DATE  = 
ORIGINATOR     = 

OBJECT_NAME    = COSMOS 2221
OBJECT_ID      = 1992-080A
CENTER_NAME    = EARTH
REF_FRAME      = TEME
TIME_SYSTEM    = UTC
MEAN_ELEMENT_THEORY = SGP/SGP4

EPOCH          = 2025-12-02T09:09:33.765120
MEAN_MOTION    = 14.95697285
ECCENTRICITY   = .0015316
INCLINATION    = 82.5052
RA_OF_ASC_NODE = 12.2398
ARG_OF_PERICENTER = 154.1188
MEAN_ANOMALY   = 206.0804

EPHEMERIS_TYPE = 0
CLASSIFICATION_TYPE = U
NORAD_CAT_ID   = 22236
ELEMENT_SET_NO = 999
REV_AT_EPOCH   = 76624
BSTAR          = .25282E-3
MEAN_MOTION_DOT = .2844E-4
MEAN_MOTION_DDOT = 0

CCSDS_OMM_VERS = 2.0
CREATION_DATE  = 
ORIGINATOR     = 

OBJECT_NAME    = SL-16 R/B
OBJECT_ID      = 1992-093B
CENTER_NAME    = EARTH
REF_FRAME      = TEME
TIME_SYSTEM    = UTC
MEAN_ELEMENT_THEORY = SGP/SGP4

EPOCH          = 2025-12-02T08:31:48.567936
MEAN_MOTION    = 14.15425694
ECCENTRICITY   = .0001941
INCLINATION    = 71.0202
RA_OF_ASC_NODE = 208.5939
ARG_OF_PERICENTER = 103.4941
MEAN_ANOMALY   = 256.6398

EPHEMERIS_TYPE = 0
CLASSIFICATION_TYPE = U
NORAD_CAT_ID   = 22285
ELEMENT_SET_NO = 999
REV_AT_EPOCH   = 69938
BSTAR          = -.53036E-4
MEAN_MOTION_DOT = -.151E-5
MEAN_MOTION_DDOT = 0

